NORAD_CAT_ID,OBJECT_NAME,OBJECT_TYPE,EPOCH,MEAN_MOTION,ECCENTRICITY,INCLINATION,RA_OF_ASC_NODE,ARG_OF_PERICENTER,MEAN_ANOMALY,BSTAR,MEAN_MOTION_DOT,MEAN_MOTION_DDOT,TLE_LINE0,TLE_LINE1,TLE_LINE2,SEMIMAJOR_AXIS,PERIOD,APOGEE,PERIGEE,DECAYED
55958.0,STARLINK-5928,PAYLOAD,2023-05-02 05:09:32,15.69911632,0.0002866,70.0029,53.2791,275.2161,84.8707,-1.236e-05,-1.697e-05,0.0,0 STARLINK-5928,1 55958U 23037AW  23122.21495840 -.00001697  00000-0 -12360-4 0  9991,2 55958  70.0029  53.2791 0002866 275.2161  84.8707 15.69911632  7661,6737.287,91.725,361.083,357.221,0.0
55958.0,STARLINK-5928,PAYLOAD,2023-05-02 20:27:03,15.69911829,0.0003774,70.0009,51.4866,269.43,90.6464,-2.2702e-05,-2.941e-05,0.0,0 STARLINK-5928,1 55958U 23037AW  23122.85212440 -.00002941  00000-0 -22702-4 0  9998,2 55958  70.0009  51.4866 0003774 269.4300  90.6464 15.69911829  7428,6737.286,91.725,361.694,356.609,0.0
55958.0,STARLINK-5928,PAYLOAD,2023-05-03 05:37:34,15.69917031,0.0003231,70.0016,50.411,248.1918,111.8934,3.5209e-06,2.11e-06,0.0,0 STARLINK-5928,1 55958U 23037AW  23123.23442581  .00000211  00000-0  35209-5 0  9995,2 55958  70.0016  50.4110 0003231 248.1918 111.8934 15.69917031  7827,6737.271,91.725,361.313,356.96,0.0
55958.0,STARLINK-5928,PAYLOAD,2023-05-03 20:55:04,15.69932937,0.0003878,70.0015,48.6222,253.8289,106.248,2.3059e-05,2.562e-05,0.0,0 STARLINK-5928,1 55958U 23037AW  23123.87158426  .00002562  00000-0  23059-4 0  9997,2 55958  70.0015  48.6222 0003878 253.8289 106.2480 15.69932937  7589,6737.226,91.724,361.704,356.478,0.0
55958.0,STARLINK-5928,PAYLOAD,2023-05-04 03:02:05,15.69930855,0.0004065,70.0021,47.9061,250.6319,109.4437,2.4253e-05,2.705e-05,0.0,0 STARLINK-5928,1 55958U 23037AW  23124.12645152  .00002705  00000-0  24253-4 0  9999,2 55958  70.0021  47.9061 0004065 250.6319 109.4437 15.69930855  7963,6737.232,91.724,361.836,356.358,0.0
55958.0,STARLINK-5928,PAYLOAD,2023-05-04 04:33:50,15.69929462,0.0004099,70.0014,47.726,252.6988,107.3759,2.6023e-05,2.918e-05,0.0,0 STARLINK-5928,1 55958U 23037AW  23124.19016899  .00002918  00000-0  26023-4 0  9999,2 55958  70.0014  47.7260 0004099 252.6988 107.3759 15.69929462  7635,6737.236,91.724,361.862,356.339,0.0
55958.0,STARLINK-5928,PAYLOAD,2023-05-04 21:23:07,15.69925344,0.0003859,70.0016,45.7553,257.1452,102.9313,3.9877e-05,4.585e-05,0.0,0 STARLINK-5928,1 55958U 23037AW  23124.89105541  .00004585  00000-0  39877-4 0  9992,2 55958  70.0016  45.7553 0003859 257.1452 102.9313 15.69925344  8081,6737.248,91.724,361.712,356.513,0.0
55958.0,STARLINK-5928,PAYLOAD,2023-05-05 20:19:23,15.69925889,0.0003983,70.0017,43.0697,262.483,97.5913,1.2361e-05,1.274e-05,0.0,0 STARLINK-5928,1 55958U 23037AW  23125.84680365  .00001274  00000-0  12361-4 0  9991,2 55958  70.0017  43.0697 0003983 262.4830  97.5913 15.69925889  7896,6737.246,91.724,361.794,356.428,0.0
55958.0,STARLINK-5928,PAYLOAD,2023-05-05 21:51:08,15.6992675,0.0003328,70.0028,42.8933,252.6302,107.453,2.0273e-05,2.226e-05,0.0,0 STARLINK-5928,1 55958U 23037AW  23125.91052079  .00002226  00000-0  20273-4 0  9993,2 55958  70.0028  42.8933 0003328 252.6302 107.4530 15.69926750  8240,6737.244,91.724,361.351,356.866,0.0
55958.0,STARLINK-5928,PAYLOAD,2023-05-06 03:58:08,15.6994251,0.0003722,70.0011,42.1742,262.0245,98.0528,4.4331e-05,5.125e-05,0.0,0 STARLINK-5928,1 55958U 23037AW  23126.16537914  .00005125  00000-0  44331-4 0  9999,2 55958  70.0011  42.1742 0003722 262.0245  98.0528 15.69942510  8280,6737.198,91.723,361.571,356.556,0.0
55958.0,STARLINK-5928,PAYLOAD,2023-05-06 22:19:11,15.69922572,0.000371,70.003,40.0253,263.947,96.1303,4.1796e-06,2.9e-06,0.0,0 STARLINK-5928,1 55958U 23037AW  23126.92998883  .00000290  00000-0  41796-5 0  9990,2 55958  70.0030  40.0253 0003710 263.9470  96.1303 15.69922572  8402,6737.256,91.724,361.62,356.621,0.0
55958.0,STARLINK-5928,PAYLOAD,2023-05-07 04:26:11,15.6991987,0.0003978,70.0022,39.3094,261.4359,98.6386,-6.7679e-07,-2.94e-06,0.0,0 STARLINK-5928,1 55958U 23037AW  23127.18485555 -.00000294  00000-0 -67679-6 0  9991,2 55958  70.0022  39.3094 0003978 261.4359  98.6386 15.69919870  8104,6737.263,91.724,361.808,356.448,0.0
55958.0,STARLINK-5928,PAYLOAD,2023-05-07 21:15:27,15.69929006,0.0004014,70.0009,37.339,260.4177,99.6565,2.0204e-05,2.218e-05,0.0,0 STARLINK-5928,1 55958U 23037AW  23127.88573744  .00002218  00000-0  20204-4 0  9993,2 55958  70.0009  37.3390 0004014 260.4177  99.6565 15.69929006  8219,6737.237,91.724,361.806,356.398,0.0
55958.0,STARLINK-5928,PAYLOAD,2023-05-08 03:22:28,15.69935458,0.0003819,70.0013,36.6215,268.3168,91.759,0.00010324,0.00012226,0.0,0 STARLINK-5928,1 55958U 23037AW  23128.14060586  .00012226  00000-0  10324-3 0  9999,2 55958  70.0013  36.6215 0003819 268.3168  91.7590 15.69935458  8591,6737.219,91.724,361.657,356.511,0.0
55958.0,STARLINK-5928,PAYLOAD,2023-05-08 11:01:14,15.69930087,0.0003737,70.0004,35.7254,268.1143,91.9624,5.5963e-05,6.523e-05,0.0,0 STARLINK-5928,1 55958U 23037AW  23128.45919058  .00006523  00000-0  55963-4 0  9992,2 55958  70.0004  35.7254 0003737 268.1143  91.9624 15.69930087  8643,6737.234,91.724,361.617,356.581,0.0
55958.0,STARLINK-5928,PAYLOAD,2023-05-08 20:11:44,15.69926659,0.0003086,70.0028,34.6514,266.5765,93.5078,1.9331e-05,2.113e-05,0.0,0 STARLINK-5928,1 55958U 23037AW  23128.84149302  .00002113  00000-0  19331-4 0  9992,2 55958  70.0028  34.6514 0003086 266.5765  93.5078 15.69926659  8365,6737.244,91.724,361.188,357.03,0.0
55958.0,STARLINK-5928,PAYLOAD,2023-05-09 03:50:30,15.69929588,0.0002974,70.0018,33.7543,272.1424,87.9431,2.461e-05,2.748e-05,0.0,0 STARLINK-5928,1 55958U 23037AW  23129.16007614  .00002748  00000-0  24610-4 0  9997,2 55958  70.0018  33.7543 0002974 272.1424  87.9431 15.69929588  8416,6737.235,91.724,361.104,357.097,0.0
55958.0,STARLINK-5928,PAYLOAD,2023-05-10 02:46:47,15.69930311,0.0003652,70.0002,31.0673,267.4591,92.6187,1.0831e-05,1.09e-05,0.0,0 STARLINK-5928,1 55958U 23037AW  23130.11582440  .00001090  00000-0  10831-4 0  9998,2 55958  70.0002  31.0673 0003652 267.4591  92.6187 15.69930311  8563,6737.233,91.724,361.559,356.638,0.0
55958.0,STARLINK-5928,PAYLOAD,2023-05-10 18:04:18,15.69926594,0.00035,70.001,29.2761,266.7726,93.307,2.558e-05,2.864e-05,0.0,0 STARLINK-5928,1 55958U 23037AW  23130.75299421  .00002864  00000-0  25580-4 0  9999,2 55958  70.0010  29.2761 0003500 266.7726  93.3070 15.69926594  9000,6737.244,91.724,361.467,356.751,0.0
55958.0,STARLINK-5928,PAYLOAD,2023-05-10 19:36:03,15.69928074,0.0003616,70.0011,29.0969,265.7642,94.314,3.5026e-05,4.002e-05,0.0,0 STARLINK-5928,1 55958U 23037AW  23130.81671009  .00004002  00000-0  35026-4 0  9994,2 55958  70.0011  29.0969 0003616 265.7642  94.3140 15.69928074  8679,6737.24,91.724,361.541,356.669,0.0
55958.0,STARLINK-5928,PAYLOAD,2023-05-11 03:14:49,15.69931993,0.0003541,70.002,28.2012,270.3097,89.7693,2.6333e-05,2.956e-05,0.0,0 STARLINK-5928,1 55958U 23037AW  23131.13529190  .00002956  00000-0  26333-4 0  9990,2 55958  70.0020  28.2012 0003541 270.3097  89.7693 15.69931993  8723,6737.229,91.724,361.479,356.708,0.0
55958.0,STARLINK-5928,PAYLOAD,2023-05-11 23:07:35,15.69940024,0.0003527,70.0015,25.8718,260.7834,99.2963,5.3631e-05,6.245e-05,0.0,0 STARLINK-5928,1 55958U 23037AW  23131.96360892  .00006245  00000-0  53631-4 0  9999,2 55958  70.0015  25.8718 0003527 260.7834  99.2963 15.69940024  9192,6737.206,91.723,361.447,356.694,0.0
55958.0,STARLINK-5928,PAYLOAD,2023-05-12 02:11:06,15.69935787,0.0003915,70.0003,25.5128,263.3613,96.7138,3.9635e-05,4.558e-05,0.0,0 STARLINK-5928,1 55958U 23037AW  23132.09104184  .00004558  00000-0  39635-4 0  9997,2 55958  70.0003  25.5128 0003915 263.3613  96.7138 15.69935787  8876,6737.218,91.723,361.72,356.445,0.0
55958.0,STARLINK-5928,PAYLOAD,2023-05-12 19:00:22,15.69924623,0.0003579,70.0023,23.5453,266.2677,93.8109,8.3282e-06,7.89e-06,0.0,0 STARLINK-5928,1 55958U 23037AW  23132.79193016  .00000789  00000-0  83282-5 0  9996,2 55958  70.0023  23.5453 0003579 266.2677  93.8109 15.69924623  9329,6737.25,91.724,361.526,356.703,0.0
55958.0,STARLINK-5928,PAYLOAD,2023-05-13 04:10:53,15.69929692,0.0003419,70.0028,22.4693,261.7296,98.3512,2.4969e-05,2.791e-05,0.0,0 STARLINK-5928,1 55958U 23037AW  23133.17422874  .00002791  00000-0  24969-4 0  9997,2 55958  70.0028  22.4693 0003419 261.7296  98.3512 15.69929692  9046,6737.235,91.724,361.404,356.797,0.0
55958.0,STARLINK-5928,PAYLOAD,2023-05-13 19:28:25,15.69917603,0.0003244,70.003,20.6793,260.3791,99.7039,2.2761e-06,6.1e-07,0.0,0 STARLINK-5928,1 55958U 23037AW  23133.81140336  .00000061  00000-0  22761-5 0  9995,2 55958  70.0030  20.6793 0003244 260.3791  99.7039 15.69917603  9140,6737.27,91.725,361.32,356.949,0.0
55958.0,STARLINK-5928,PAYLOAD,2023-05-14 01:35:25,15.6992346,0.0003394,70.0009,19.9614,267.2863,92.7944,7.863e-05,9.252e-05,0.0,0 STARLINK-5928,1 55958U 23037AW  23134.06627094  .00009252  00000-0  78630-4 0  9990,2 55958  70.0009  19.9614 0003394 267.2863  92.7944 15.69923460  9529,6737.253,91.724,361.405,356.831,0.0
55958.0,STARLINK-5928,PAYLOAD,2023-05-14 18:24:41,15.69926308,0.0003474,70.0002,17.9916,264.564,95.5159,1.5061e-06,-3.2e-07,0.0,0 STARLINK-5928,1 55958U 23037AW  23134.76714942 -.00000032  00000-0  15061-5 0  9994,2 55958  70.0002  17.9916 0003474 264.5640  95.5159 15.69926308  9294,6737.245,91.724,361.45,356.769,0.0
55958.0,STARLINK-5928,PAYLOAD,2023-05-15 02:03:27,15.69924523,0.000355,70.0008,17.0961,261.6797,98.3996,4.4274e-06,3.2e-06,0.0,0 STARLINK-5928,1 55958U 23037AW  23135.08573387  .00000320  00000-0  44274-5 0  9993,2 55958  70.0008  17.0961 0003550 261.6797  98.3996 15.69924523  9687,6737.25,91.724,361.507,356.723,0.0
55958.0,STARLINK-5928,PAYLOAD,2023-05-15 09:42:12,15.69932633,0.0003482,70.0005,16.1998,266.9732,93.1065,-1.0602e-06,-3.4e-06,0.0,0 STARLINK-5928,1 55958U 23037AW  23135.40431326 -.00000340  00000-0 -10602-5 0  9997,2 55958  70.0005  16.1998 0003482 266.9732  93.1065 15.69932633  9394,6737.227,91.724,361.438,356.746,0.0
